{"type":"FeatureCollection","features":[{"type":"Feature","properties":{"type":0},"geometry":{"coordinates":[-95.25550919842141,32.319268636802235],"type":"Point"},"id":0},{"type":"Feature","properties":{"type":0},"geometry":{"coordinates":[-95.25551738956466,32.319573719669265],"type":"Point"},"id":1},{"type":"Feature","properties":{"type":1},"geometry":{"coordinates":[-95.25509931000353,32.319587002012625],"type":"Point"},"id":2},{"type":"Feature","properties":{"type":1},"geometry":{"coordinates":[-95.25511817073586,32.31964411606606],"type":"Point"},"id":3},{"type":"Feature","properties":{"type":1},"geometry":{"coordinates":[-95.25508673618258,32.319640131365745],"type":"Point"},"id":4},{"type":"Feature","properties":{"type":2},"geometry":{"coordinates":[-95.25553782202408,32.319942968085044],"type":"Point"}},{"type":"Feature","properties":{"type":1},"geometry":{"coordinates":[-95.25551110265387,32.31978490869555],"type":"Point"},"id":6},{"type":"Feature","properties":{"type":2},"geometry":{"coordinates":[-95.25478339277737,32.319454178330375],"type":"Point"},"id":7},{"type":"Feature","properties":{"type":1},"geometry":{"coordinates":[-95.2550906656932,32.31971185562419],"type":"Point"},"id":8},{"type":"Feature","properties":{"type":1},"geometry":{"coordinates":[-95.2551047487076,32.31967462871587],"type":"Point"},"id":9},{"type":"Feature","properties":{"type":4},"geometry":{"coordinates":[-95.25553345859025,32.31846056540023],"type":"Point"},"id":10},{"type":"Feature","properties":{"type":1},"geometry":{"coordinates":[-95.2554664380715,32.318872769193604],"type":"Point"},"id":11},{"type":"Feature","properties":{"type":2},"geometry":{"coordinates":[-95.25442002777346,32.31897825679728],"type":"Point"},"id":12},{"type":"Feature","properties":{"type":1},"geometry":{"coordinates":[-95.25353900902446,32.317819741575974],"type":"Point"},"id":13},{"type":"Feature","properties":{"type":1},"geometry":{"coordinates":[-95.25361627959116,32.31784320912587],"type":"Point"},"id":14},{"type":"Feature","properties":{"type":1},"geometry":{"coordinates":[-95.2535534972559,32.317873818963605],"type":"Point"},"id":15},{"type":"Feature","properties":{"type":1},"geometry":{"coordinates":[-95.25351244726733,32.31777076580089],"type":"Point"},"id":16},{"type":"Feature","properties":{"type":2},"geometry":{"coordinates":[-95.25273263470191,32.31712548226439],"type":"Point"},"id":17},{"type":"Feature","properties":{"type":2},"geometry":{"coordinates":[-95.25275054155824,32.317102782579255],"type":"Point"},"id":18},{"type":"Feature","properties":{"type":2},"geometry":{"coordinates":[-95.25273800675882,32.317048303313015],"type":"Point"},"id":19},{"type":"Feature","properties":{"type":1},"geometry":{"coordinates":[-95.2526999617732,32.31667384360378],"type":"Point"},"id":20},{"type":"Feature","properties":{"type":1},"geometry":{"coordinates":[-95.25271962625266,32.31665399900983],"type":"Point"},"id":21},{"type":"Feature","properties":{"type":1},"geometry":{"coordinates":[-95.25211999805931,32.31644850395733],"type":"Point"},"id":22},{"type":"Feature","properties":{"type":1},"geometry":{"coordinates":[-95.25214327697184,32.31650601023004],"type":"Point"},"id":23},{"type":"Feature","properties":{"type":1},"geometry":{"coordinates":[-95.25210388188863,32.31659832285381],"type":"Point"},"id":24},{"type":"Feature","properties":{"type":2},"geometry":{"coordinates":[-95.2520197081904,32.31685713469943],"type":"Point"},"id":25},{"type":"Feature","properties":{"type":4},"geometry":{"coordinates":[-95.2515130134475,32.31651070042986],"type":"Point"},"id":26},{"type":"Feature","properties":{"type":4},"geometry":{"coordinates":[-95.2515183855044,32.316501620494876],"type":"Point"},"id":27},{"type":"Feature","properties":{"type":4},"geometry":{"coordinates":[-95.25149510659189,32.31650918710747],"type":"Point"},"id":28},{"type":"Feature","properties":{"type":2},"geometry":{"coordinates":[-95.25182459274316,32.31666808582274],"type":"Point"},"id":29},{"type":"Feature","properties":{"type":1},"geometry":{"coordinates":[-95.25333855029812,32.314139539603886],"type":"Point"},"id":30},{"type":"Feature","properties":{"type":1},"geometry":{"coordinates":[-95.25372909011317,32.31419372803185],"type":"Point"},"id":31},{"type":"Feature","properties":{"type":3},"geometry":{"coordinates":[-95.2541826696144,32.31479253413377],"type":"Point"},"id":32},{"type":"Feature","properties":{"type":1},"geometry":{"coordinates":[-95.2538989939173,32.315707158115856],"type":"Point"},"id":33},{"type":"Feature","properties":{"type":2},"geometry":{"coordinates":[-95.25399614312494,32.31576955582983],"type":"Point"},"id":34},{"type":"Feature","properties":{"type":2},"geometry":{"coordinates":[-95.25388733601223,32.315846731889735],"type":"Point"},"id":35},{"type":"Feature","properties":{"type":1},"geometry":{"coordinates":[-95.2538290464875,32.31578105014094],"type":"Point"},"id":36}]}